{
  "doctors": [
    {
      "upin": 202029,
      "name": "John Doe",
      "available": false,
      "zipCode": 92037,
      "city": "La Jolla"
    },
    {
      "upin": 402910,
      "name": "Nick Ramsen",
      "available": true,
      "zipCode": 92037,
      "city": "La Jolla"
    },
    {
      "upin": 910291,
      "name": "Liz Redfield",
      "available": true,
      "zipCode": 92015,
      "city": "San Diego"
    },
    {
      "upin": 202914,
      "name": "Javier Garcia",
      "available": false,
      "zipCode": 92015,
      "city": "San Diego"
    },
    {
      "upin": 394840,
      "name": "Harry Bone",
      "available": true,
      "zipCode": 92015,
      "city": "San Diego"
    },
    {
      "upin": 982170,
      "name": "Kevin Lamkin",
      "available": true,
      "zipCode": 92015,
      "city": "San Diego"
    },
    {
      "upin": 393920,
      "name": "Andrew Stuart",
      "available": true,
      "zipCode": 92037,
      "city": "La Jolla"
    },
    {
      "upin": 655942,
      "name": "Maggie Willians",
      "available": true,
      "zipCode": 92037,
      "city": "San Diego"
    }
  ]
}